start=new Date('2022-05-30T00:00:00.000Z').valueOf();
sats=[{"OBJECT_ID":"2022-016AH","ECCENTRICITY":"0.00014930","RCS_SIZE":"LARGE","MEAN_ELEMENT_THEORY":"SGP4","MEAN_MOTION_DOT":"-0.00001261","DECAY_DATE":null,"LAUNCH_DATE":"2022-02-21","PERIAPSIS":"538.740","TIME_SYSTEM":"UTC","REV_AT_EPOCH":"1526","TLE_LINE1":"1 51745U 22016AH  22149.91926509 -.00001261  00000-0 -61150-4 0  9991","ARG_OF_PERICENTER":"57.1451","EPHEMERIS_TYPE":"0","CLASSIFICATION_TYPE":"U","MEAN_MOTION":"15.08830916","FILE":"3471362","GP_ID":"204891616","SITE":"AFETR","BSTAR":"-0.00006115000000","EPOCH":"2022-05-29T22:03:44.503776","TLE_LINE2":"2 51745  53.2165  33.1489 0001493  57.1451 302.9684 15.08830916 15261","ELEMENT_SET_NO":"999","REF_FRAME":"TEME","NORAD_CAT_ID":"51745","COUNTRY_CODE":"US","OBJECT_TYPE":"PAYLOAD","PERIOD":"95.438","MEAN_MOTION_DDOT":"0.0000000000000","APOAPSIS":"540.806","OBJECT_NAME":"STARLINK-3449","MEAN_ANOMALY":"302.9684","RA_OF_ASC_NODE":"33.1489","SEMIMAJOR_AXIS":"6917.908","CENTER_NAME":"EARTH","INCLINATION":"53.2165"},{"MEAN_MOTION":"15.25943359","CLASSIFICATION_TYPE":"U","ARG_OF_PERICENTER":"89.0230","EPHEMERIS_TYPE":"0","TLE_LINE1":"1 51746U 22016AJ  22149.92334694 -.00206966  00000-0 -81693-2 0  9992","REV_AT_EPOCH":"1539","TIME_SYSTEM":"UTC","PERIAPSIS":"486.523","LAUNCH_DATE":"2022-02-21","DECAY_DATE":null,"MEAN_MOTION_DOT":"-0.00206966","MEAN_ELEMENT_THEORY":"SGP4","ECCENTRICITY":"0.00020870","RCS_SIZE":"LARGE","OBJECT_ID":"2022-016AJ","INCLINATION":"53.2153","SEMIMAJOR_AXIS":"6866.091","CENTER_NAME":"EARTH","RA_OF_ASC_NODE":"23.7936","MEAN_ANOMALY":"271.1009","OBJECT_NAME":"STARLINK-3502","APOAPSIS":"489.389","MEAN_MOTION_DDOT":"0.0000000000000","COUNTRY_CODE":"US","OBJECT_TYPE":"PAYLOAD","PERIOD":"94.368","NORAD_CAT_ID":"51746","REF_FRAME":"TEME","ELEMENT_SET_NO":"999","TLE_LINE2":"2 51746  53.2153  23.7936 0002087  89.0230 271.1009 15.25943359 15397","EPOCH":"2022-05-29T22:09:37.175616","BSTAR":"-0.00816930000000","SITE":"AFETR","FILE":"3471362","GP_ID":"204891866"},{"REF_FRAME":"TEME","NORAD_CAT_ID":"51747","COUNTRY_CODE":"US","PERIOD":"95.438","OBJECT_TYPE":"PAYLOAD","MEAN_MOTION_DDOT":"0.0000000000000","ELEMENT_SET_NO":"999","EPOCH":"2022-05-29T21:47:51.398592","BSTAR":"-0.00010360000000","TLE_LINE2":"2 51747  53.2170  33.1858 0001723  58.9455 301.1706 15.08834834 15267","GP_ID":"204892116","FILE":"3471362","SITE":"AFETR","SEMIMAJOR_AXIS":"6917.896","CENTER_NAME":"EARTH","INCLINATION":"53.2170","APOAPSIS":"540.953","OBJECT_NAME":"STARLINK-3446","MEAN_ANOMALY":"301.1706","RA_OF_ASC_NODE":"33.1858","PERIAPSIS":"538.569","TIME_SYSTEM":"UTC","LAUNCH_DATE":"2022-02-21","MEAN_MOTION_DOT":"-0.00001936","DECAY_DATE":null,"OBJECT_ID":"2022-016AK","RCS_SIZE":"LARGE","ECCENTRICITY":"0.00017230","MEAN_ELEMENT_THEORY":"SGP4","CLASSIFICATION_TYPE":"U","MEAN_MOTION":"15.08834834","EPHEMERIS_TYPE":"0","ARG_OF_PERICENTER":"58.9455","TLE_LINE1":"1 51747U 22016AK  22149.90823378 -.00001936  00000-0 -10360-3 0  9997","REV_AT_EPOCH":"1526"},{"EPOCH":"2022-05-29T22:03:00.876096","BSTAR":"-0.00845630000000","TLE_LINE2":"2 51748  53.2160  23.8213 0001802  61.7044 298.4137 15.26352953 15399","SITE":"AFETR","GP_ID":"204892363","FILE":"3471362","COUNTRY_CODE":"US","OBJECT_TYPE":"PAYLOAD","MEAN_MOTION_DDOT":"0.0000000000000","PERIOD":"94.343","REF_FRAME":"TEME","NORAD_CAT_ID":"51748","ELEMENT_SET_NO":"999","OBJECT_NAME":"STARLINK-3501","MEAN_ANOMALY":"298.4137","APOAPSIS":"487.965","RA_OF_ASC_NODE":"23.8213","SEMIMAJOR_AXIS":"6864.863","CENTER_NAME":"EARTH","INCLINATION":"53.2160","MEAN_MOTION_DOT":"-0.00216607","DECAY_DATE":null,"OBJECT_ID":"2022-016AL","MEAN_ELEMENT_THEORY":"SGP4","ECCENTRICITY":"0.00018020","RCS_SIZE":"LARGE","TIME_SYSTEM":"UTC","PERIAPSIS":"485.491","LAUNCH_DATE":"2022-02-21","EPHEMERIS_TYPE":"0","ARG_OF_PERICENTER":"61.7044","TLE_LINE1":"1 51748U 22016AL  22149.91876014 -.00216607  00000-0 -84563-2 0  9992","REV_AT_EPOCH":"1539","CLASSIFICATION_TYPE":"U","MEAN_MOTION":"15.26352953"},{"TLE_LINE1":"1 51749U 22016AM  22149.93862831  .00000165  00000-0  28452-4 0  9992","REV_AT_EPOCH":"1526","EPHEMERIS_TYPE":"0","ARG_OF_PERICENTER":"48.7113","CLASSIFICATION_TYPE":"U","MEAN_MOTION":"15.08833619","OBJECT_ID":"2022-016AM","ECCENTRICITY":"0.00017750","RCS_SIZE":"LARGE","MEAN_ELEMENT_THEORY":"SGP4","MEAN_MOTION_DOT":"0.00000165","DECAY_DATE":null,"LAUNCH_DATE":"2022-02-21","PERIAPSIS":"538.537","TIME_SYSTEM":"UTC","APOAPSIS":"540.993","OBJECT_NAME":"STARLINK-3451","MEAN_ANOMALY":"311.4032","RA_OF_ASC_NODE":"33.0632","SEMIMAJOR_AXIS":"6917.900","CENTER_NAME":"EARTH","INCLINATION":"53.2146","GP_ID":"204891116","FILE":"3471362","SITE":"AFETR","EPOCH":"2022-05-29T22:31:37.485984","BSTAR":"0.00002845200000","TLE_LINE2":"2 51749  53.2146  33.0632 0001775  48.7113 311.4032 15.08833619 15262","ELEMENT_SET_NO":"999","NORAD_CAT_ID":"51749","REF_FRAME":"TEME","COUNTRY_CODE":"US","MEAN_MOTION_DDOT":"0.0000000000000","OBJECT_TYPE":"PAYLOAD","PERIOD":"95.438"},{"EPHEMERIS_TYPE":"0","ARG_OF_PERICENTER":"107.0382","TLE_LINE1":"1 51750U 22016AN  22149.91433675 -.00192574  00000-0 -74213-2 0  9994","REV_AT_EPOCH":"1539","CLASSIFICATION_TYPE":"U","MEAN_MOTION":"15.26669182","MEAN_MOTION_DOT":"-0.00192574","DECAY_DATE":null,"OBJECT_ID":"2022-016AN","MEAN_ELEMENT_THEORY":"SGP4","ECCENTRICITY":"0.00012540","RCS_SIZE":"MEDIUM","TIME_SYSTEM":"UTC","PERIAPSIS":"484.919","LAUNCH_DATE":"2022-02-21","OBJECT_NAME":"STARLINK-3505","MEAN_ANOMALY":"253.0756","APOAPSIS":"486.641","RA_OF_ASC_NODE":"23.8489","CENTER_NAME":"EARTH","SEMIMAJOR_AXIS":"6863.915","INCLINATION":"53.2166","EPOCH":"2022-05-29T21:56:38.695200","BSTAR":"-0.00742130000000","TLE_LINE2":"2 51750  53.2166  23.8489 0001254 107.0382 253.0756 15.26669182 15392","SITE":"AFETR","FILE":"3471362","GP_ID":"204891366","OBJECT_TYPE":"PAYLOAD","COUNTRY_CODE":"US","MEAN_MOTION_DDOT":"0.0000000000000","PERIOD":"94.323","NORAD_CAT_ID":"51750","REF_FRAME":"TEME","ELEMENT_SET_NO":"999"},{"TLE_LINE1":"1 51751U 22016AP  22149.92068689 -.00308736  00000-0 -12379-1 0  9998","REV_AT_EPOCH":"1539","ARG_OF_PERICENTER":"91.5572","EPHEMERIS_TYPE":"0","CLASSIFICATION_TYPE":"U","MEAN_MOTION":"15.25895682","OBJECT_ID":"2022-016AP","MEAN_ELEMENT_THEORY":"SGP4","ECCENTRICITY":"0.00014140","RCS_SIZE":"LARGE","MEAN_MOTION_DOT":"-0.00308736","DECAY_DATE":null,"LAUNCH_DATE":"2022-02-21","TIME_SYSTEM":"UTC","PERIAPSIS":"487.128","MEAN_ANOMALY":"268.5589","OBJECT_NAME":"STARLINK-3506","APOAPSIS":"489.070","RA_OF_ASC_NODE":"23.8038","CENTER_NAME":"EARTH","SEMIMAJOR_AXIS":"6866.234","INCLINATION":"53.2167","SITE":"AFETR","GP_ID":"204892617","FILE":"3471362","BSTAR":"-0.01237900000000","EPOCH":"2022-05-29T22:05:47.347296","TLE_LINE2":"2 51751  53.2167  23.8038 0001414  91.5572 268.5589 15.25895682 15390","ELEMENT_SET_NO":"999","COUNTRY_CODE":"US","OBJECT_TYPE":"PAYLOAD","MEAN_MOTION_DDOT":"0.0000000000000","PERIOD":"94.371","REF_FRAME":"TEME","NORAD_CAT_ID":"51751"},{"ELEMENT_SET_NO":"999","OBJECT_TYPE":"PAYLOAD","COUNTRY_CODE":"US","MEAN_MOTION_DDOT":"0.0000000000000","PERIOD":"94.304","NORAD_CAT_ID":"51752","REF_FRAME":"TEME","SITE":"AFETR","FILE":"3471362","GP_ID":"204892864","TLE_LINE2":"2 51752  53.2167  23.8638 0001935  69.4067 290.7140 15.26968512 15392","BSTAR":"-0.00861370000000","EPOCH":"2022-05-29T21:53:23.284320","INCLINATION":"53.2167","SEMIMAJOR_AXIS":"6863.018","CENTER_NAME":"EARTH","RA_OF_ASC_NODE":"23.8638","OBJECT_NAME":"STARLINK-3511","MEAN_ANOMALY":"290.7140","APOAPSIS":"486.211","LAUNCH_DATE":"2022-02-21","TIME_SYSTEM":"UTC","PERIAPSIS":"483.555","MEAN_ELEMENT_THEORY":"SGP4","RCS_SIZE":"LARGE","ECCENTRICITY":"0.00019350","OBJECT_ID":"2022-016AQ","DECAY_DATE":null,"MEAN_MOTION_DOT":"-0.00224553","MEAN_MOTION":"15.26968512","CLASSIFICATION_TYPE":"U","TLE_LINE1":"1 51752U 22016AQ  22149.91207505 -.00224553  00000-0 -86137-2 0  9998","REV_AT_EPOCH":"1539","ARG_OF_PERICENTER":"69.4067","EPHEMERIS_TYPE":"0"},{"REV_AT_EPOCH":"1539","TLE_LINE1":"1 51753U 22016AR  22149.91660144 -.00204366  00000-0 -79208-2 0  9992","EPHEMERIS_TYPE":"0","ARG_OF_PERICENTER":"77.9242","CLASSIFICATION_TYPE":"U","MEAN_MOTION":"15.26535525","OBJECT_ID":"2022-016AR","MEAN_ELEMENT_THEORY":"SGP4","RCS_SIZE":"LARGE","ECCENTRICITY":"0.00016070","MEAN_MOTION_DOT":"-0.00204366","DECAY_DATE":null,"LAUNCH_DATE":"2022-02-21","TIME_SYSTEM":"UTC","PERIAPSIS":"485.077","OBJECT_NAME":"STARLINK-3507","MEAN_ANOMALY":"282.1938","APOAPSIS":"487.284","RA_OF_ASC_NODE":"23.8338","CENTER_NAME":"EARTH","SEMIMAJOR_AXIS":"6864.315","INCLINATION":"53.2153","SITE":"AFETR","GP_ID":"204891617","FILE":"3471362","EPOCH":"2022-05-29T21:59:54.364416","BSTAR":"-0.00792080000000","TLE_LINE2":"2 51753  53.2153  23.8338 0001607  77.9242 282.1938 15.26535525 15394","ELEMENT_SET_NO":"999","PERIOD":"94.331","COUNTRY_CODE":"US","OBJECT_TYPE":"PAYLOAD","MEAN_MOTION_DDOT":"0.0000000000000","NORAD_CAT_ID":"51753","REF_FRAME":"TEME"},{"MEAN_MOTION":"15.27333128","CLASSIFICATION_TYPE":"U","ARG_OF_PERICENTER":"89.9747","EPHEMERIS_TYPE":"0","TLE_LINE1":"1 51754U 22016AS  22149.90825157 -.00210154  00000-0 -79562-2 0  9994","REV_AT_EPOCH":"1539","TIME_SYSTEM":"UTC","PERIAPSIS":"482.478","LAUNCH_DATE":"2022-02-21","DECAY_DATE":null,"MEAN_MOTION_DOT":"-0.00210154","MEAN_ELEMENT_THEORY":"SGP4","RCS_SIZE":"LARGE","ECCENTRICITY":"0.00019120","OBJECT_ID":"2022-016AS","INCLINATION":"53.2172","SEMIMAJOR_AXIS":"6861.925","CENTER_NAME":"EARTH","RA_OF_ASC_NODE":"23.8878","OBJECT_NAME":"STARLINK-3457","MEAN_ANOMALY":"270.1472","APOAPSIS":"485.102","COUNTRY_CODE":"US","PERIOD":"94.282","OBJECT_TYPE":"PAYLOAD","MEAN_MOTION_DDOT":"0.0000000000000","NORAD_CAT_ID":"51754","REF_FRAME":"TEME","ELEMENT_SET_NO":"999","TLE_LINE2":"2 51754  53.2172  23.8878 0001912  89.9747 270.1472 15.27333128 15393","BSTAR":"-0.00795620000000","EPOCH":"2022-05-29T21:47:52.935648","SITE":"AFETR","FILE":"3471362","GP_ID":"204891867"}];
